[{"OBJECT_NAME":"ONEWEB-0136","OBJECT_ID":"2020-100AA","EPOCH":"2026-06-08T01:02:03.972192","MEAN_MOTION":13.12444302,"ECCENTRICITY":0.0001519,"INCLINATION":87.895,"RA_OF_ASC_NODE":352.4686,"ARG_OF_PERICENTER":94.3913,"MEAN_ANOMALY":265.7389,"EPHEMERIS_TYPE":0,"CLASSIFICATION_TYPE":"U","NORAD_CAT_ID":47282,"ELEMENT_SET_NO":999,"REV_AT_EPOCH":26346,"BSTAR":-0.00017802,"MEAN_MOTION_DOT":-5.1e-07,"MEAN_MOTION_DDOT":0.0},{"OBJECT_NAME":"ONEWEB-0137","OBJECT_ID":"2020-100AB","EPOCH":"2026-06-08T00:01:04.796544","MEAN_MOTION":13.12442256,"ECCENTRICITY":0.0001942,"INCLINATION":87.8953,"RA_OF_ASC_NODE":352.4863,"ARG_OF_PERICENTER":89.0499,"MEAN_ANOMALY":271.0852,"EPHEMERIS_TYPE":0,"CLASSIFICATION_TYPE":"U","NORAD_CAT_ID":47283,"ELEMENT_SET_NO":999,"REV_AT_EPOCH":26336,"BSTAR":0.00058207,"MEAN_MOTION_DOT":2.22e-06,"MEAN_MOTION_DDOT":0.0},{"OBJECT_NAME":"ONEWEB-0138","OBJECT_ID":"2020-100AC","EPOCH":"2026-06-08T01:19:09.422688","MEAN_MOTION":13.12443769,"ECCENTRICITY":0.0001636,"INCLINATION":87.895,"RA_OF_ASC_NODE":352.4817,"ARG_OF_PERICENTER":93.5943,"MEAN_ANOMALY":266.5373,"EPHEMERIS_TYPE":0,"CLASSIFICATION_TYPE":"U","NORAD_CAT_ID":47284,"ELEMENT_SET_NO":999,"REV_AT_EPOCH":26345,"BSTAR":0.00064396,"MEAN_MOTION_DOT":2.44e-06,"MEAN_MOTION_DDOT":0.0},{"OBJECT_NAME":"ONEWEB-0139","OBJECT_ID":"2020-100AD","EPOCH":"2026-06-08T02:17:53.342592","MEAN_MOTION":13.12443661,"ECCENTRICITY":0.0001756,"INCLINATION":87.8949,"RA_OF_ASC_NODE":352.4597,"ARG_OF_PERICENTER":90.0458,"MEAN_ANOMALY":270.0871,"EPHEMERIS_TYPE":0,"CLASSIFICATION_TYPE":"U","NORAD_CAT_ID":47285,"ELEMENT_SET_NO":999,"REV_AT_EPOCH":26353,"BSTAR":-0.0010526,"MEAN_MOTION_DOT":-3.66e-06,"MEAN_MOTION_DDOT":0.0},{"OBJECT_NAME":"ONEWEB-0140","OBJECT_ID":"2020-100AE","EPOCH":"2026-06-08T01:11:49.891200","MEAN_MOTION":13.1244488,"ECCENTRICITY":0.0001693,"INCLINATION":87.8951,"RA_OF_ASC_NODE":352.4598,"ARG_OF_PERICENTER":83.4449,"MEAN_ANOMALY":276.6872,"EPHEMERIS_TYPE":0,"CLASSIFICATION_TYPE":"U","NORAD_CAT_ID":47286,"ELEMENT_SET_NO":999,"REV_AT_EPOCH":26349,"BSTAR":0.00013005,"MEAN_MOTION_DOT":6e-07,"MEAN_MOTION_DDOT":0.0},{"OBJECT_NAME":"ONEWEB-0141","OBJECT_ID":"2020-100AF","EPOCH":"2026-06-08T02:17:29.527296","MEAN_MOTION":13.12443585,"ECCENTRICITY":0.0002084,"INCLINATION":87.895,"RA_OF_ASC_NODE":352.4552,"ARG_OF_PERICENTER":91.2851,"MEAN_ANOMALY":268.8517,"EPHEMERIS_TYPE":0,"CLASSIFICATION_TYPE":"U","NORAD_CAT_ID":47287,"ELEMENT_SET_NO":999,"REV_AT_EPOCH":26348,"BSTAR":-0.0008428099999999999,"MEAN_MOTION_DOT":-2.9e-06,"MEAN_MOTION_DDOT":0.0},{"OBJECT_NAME":"ONEWEB-0142","OBJECT_ID":"2020-100AG","EPOCH":"2026-06-08T00:11:03.539904","MEAN_MOTION":13.12441137,"ECCENTRICITY":0.000202,"INCLINATION":87.8944,"RA_OF_ASC_NODE":352.495,"ARG_OF_PERICENTER":100.2607,"MEAN_ANOMALY":259.875,"EPHEMERIS_TYPE":0,"CLASSIFICATION_TYPE":"U","NORAD_CAT_ID":47288,"ELEMENT_SET_NO":999,"REV_AT_EPOCH":26346,"BSTAR":2.6388000000000002e-05,"MEAN_MOTION_DOT":2.2e-07,"MEAN_MOTION_DDOT":0.0},{"OBJECT_NAME":"ONEWEB-0143","OBJECT_ID":"2020-100AH","EPOCH":"2026-06-08T02:15:15.183936","MEAN_MOTION":13.12443007,"ECCENTRICITY":0.0001866,"INCLINATION":87.895,"RA_OF_ASC_NODE":352.4763,"ARG_OF_PERICENTER":88.6658,"MEAN_ANOMALY":271.4685,"EPHEMERIS_TYPE":0,"CLASSIFICATION_TYPE":"U","NORAD_CAT_ID":47289,"ELEMENT_SET_NO":999,"REV_AT_EPOCH":26345,"BSTAR":-0.0012009,"MEAN_MOTION_DOT":-4.19e-06,"MEAN_MOTION_DDOT":0.0},{"OBJECT_NAME":"ONEWEB-0144","OBJECT_ID":"2020-100AJ","EPOCH":"2026-06-08T01:33:48.824352","MEAN_MOTION":13.12443751,"ECCENTRICITY":0.0001663,"INCLINATION":87.8954,"RA_OF_ASC_NODE":352.4556,"ARG_OF_PERICENTER":100.5959,"MEAN_ANOMALY":259.5356,"EPHEMERIS_TYPE":0,"CLASSIFICATION_TYPE":"U","NORAD_CAT_ID":47290,"ELEMENT_SET_NO":999,"REV_AT_EPOCH":26337,"BSTAR":0.0012901000000000002,"MEAN_MOTION_DOT":4.77e-06,"MEAN_MOTION_DDOT":0.0},{"OBJECT_NAME":"ONEWEB-0145","OBJECT_ID":"2020-100AK","EPOCH":"2026-06-08T00:52:18.527520","MEAN_MOTION":13.12444172,"ECCENTRICITY":0.0001799,"INCLINATION":87.8943,"RA_OF_ASC_NODE":352.4905,"ARG_OF_PERICENTER":91.9509,"MEAN_ANOMALY":268.1825,"EPHEMERIS_TYPE":0,"CLASSIFICATION_TYPE":"U","NORAD_CAT_ID":47291,"ELEMENT_SET_NO":999,"REV_AT_EPOCH":26356,"BSTAR":-0.0006658100000000001,"MEAN_MOTION_DOT":-2.27e-06,"MEAN_MOTION_DDOT":0.0},{"OBJECT_NAME":"ONEWEB-0146","OBJECT_ID":"2020-100AL","EPOCH":"2026-06-08T00:47:25.958112","MEAN_MOTION":13.12443708,"ECCENTRICITY":0.000185,"INCLINATION":87.8951,"RA_OF_ASC_NODE":352.4822,"ARG_OF_PERICENTER":78.4194,"MEAN_ANOMALY":281.7142,"EPHEMERIS_TYPE":0,"CLASSIFICATION_TYPE":"U","NORAD_CAT_ID":47292,"ELEMENT_SET_NO":999,"REV_AT_EPOCH":26347,"BSTAR":-0.0010857,"MEAN_MOTION_DOT":-3.78e-06,"MEAN_MOTION_DDOT":0.0},{"OBJECT_NAME":"ONEWEB-0147","OBJECT_ID":"2020-100AM","EPOCH":"2026-06-07T22:08:51.718848","MEAN_MOTION":13.12441966,"ECCENTRICITY":0.0001611,"INCLINATION":87.8951,"RA_OF_ASC_NODE":352.4853,"ARG_OF_PERICENTER":87.8129,"MEAN_ANOMALY":272.3184,"EPHEMERIS_TYPE":0,"CLASSIFICATION_TYPE":"U","NORAD_CAT_ID":47293,"ELEMENT_SET_NO":999,"REV_AT_EPOCH":26335,"BSTAR":0.00039006,"MEAN_MOTION_DOT":1.53e-06,"MEAN_MOTION_DDOT":0.0},{"OBJECT_NAME":"ONEWEB-0115","OBJECT_ID":"2021-025A","EPOCH":"2026-06-07T22:59:51.040896","MEAN_MOTION":13.13469806,"ECCENTRICITY":0.0001803,"INCLINATION":87.8952,"RA_OF_ASC_NODE":322.0614,"ARG_OF_PERICENTER":92.6404,"MEAN_ANOMALY":267.4931,"EPHEMERIS_TYPE":0,"CLASSIFICATION_TYPE":"U","NORAD_CAT_ID":48042,"ELEMENT_SET_NO":999,"REV_AT_EPOCH":25238,"BSTAR":-0.000294,"MEAN_MOTION_DOT":-9.5e-07,"MEAN_MOTION_DDOT":0.0},{"OBJECT_NAME":"ONEWEB-0152","OBJECT_ID":"2021-025B","EPOCH":"2026-06-08T04:48:26.387424","MEAN_MOTION":13.13470094,"ECCENTRICITY":0.0001762,"INCLINATION":87.8952,"RA_OF_ASC_NODE":322.0096,"ARG_OF_PERICENTER":90.5631,"MEAN_ANOMALY":269.57,"EPHEMERIS_TYPE":0,"CLASSIFICATION_TYPE":"U","NORAD_CAT_ID":48043,"ELEMENT_SET_NO":999,"REV_AT_EPOCH":25237,"BSTAR":0.00062036,"MEAN_MOTION_DOT":2.39e-06,"MEAN_MOTION_DDOT":0.0},{"OBJECT_NAME":"ONEWEB-0153","OBJECT_ID":"2021-025C","EPOCH":"2026-06-08T04:16:44.534208","MEAN_MOTION":13.13469855,"ECCENTRICITY":0.0001883,"INCLINATION":87.8951,"RA_OF_ASC_NODE":322.0177,"ARG_OF_PERICENTER":97.0559,"MEAN_ANOMALY":263.0784,"EPHEMERIS_TYPE":0,"CLASSIFICATION_TYPE":"U","NORAD_CAT_ID":48044,"ELEMENT_SET_NO":999,"REV_AT_EPOCH":25236,"BSTAR":-0.00085742,"MEAN_MOTION_DOT":-3e-06,"MEAN_MOTION_DDOT":0.0},{"OBJECT_NAME":"ONEWEB-0154","OBJECT_ID":"2021-025D","EPOCH":"2026-06-08T04:11:51.817056","MEAN_MOTION":13.13468924,"ECCENTRICITY":0.0001711,"INCLINATION":87.895,"RA_OF_ASC_NODE":322.0156,"ARG_OF_PERICENTER":94.6779,"MEAN_ANOMALY":265.4545,"EPHEMERIS_TYPE":0,"CLASSIFICATION_TYPE":"U","NORAD_CAT_ID":48045,"ELEMENT_SET_NO":999,"REV_AT_EPOCH":25232,"BSTAR":-0.00080953,"MEAN_MOTION_DOT":-2.83e-06,"MEAN_MOTION_DDOT":0.0}]